CCSDS_OMM_VERS = 2.0
CREATION_DATE  = 
ORIGINATOR     = 

OBJECT_NAME    = STARLINK-35439
OBJECT_ID      = 2025-259K
CENTER_NAME    = EARTH
REF_FRAME      = TEME
TIME_SYSTEM    = UTC
MEAN_ELEMENT_THEORY = SGP/SGP4

EPOCH          = 2025-11-22T13:44:49.443936
MEAN_MOTION    = 15.82630756
ECCENTRICITY   = .0011255
INCLINATION    = 42.9955
RA_OF_ASC_NODE = 166.7361
ARG_OF_PERICENTER = 248.9037
MEAN_ANOMALY   = 111.0632

EPHEMERIS_TYPE = 0
CLASSIFICATION_TYPE = U
NORAD_CAT_ID   = 66431
ELEMENT_SET_NO = 999
REV_AT_EPOCH   = 302
BSTAR          = .23874E-2
MEAN_MOTION_DOT = .552748E-2
MEAN_MOTION_DDOT = 0

CCSDS_OMM_VERS = 2.0
CREATION_DATE  = 
ORIGINATOR     = 

OBJECT_NAME    = STARLINK-35446
OBJECT_ID      = 2025-259L
CENTER_NAME    = EARTH
REF_FRAME      = TEME
TIME_SYSTEM    = UTC
MEAN_ELEMENT_THEORY = SGP/SGP4

EPOCH          = 2025-11-22T18:16:47.474112
MEAN_MOTION    = 15.83119950
ECCENTRICITY   = .0015642
INCLINATION    = 42.9966
RA_OF_ASC_NODE = 165.5690
ARG_OF_PERICENTER = 240.8171
MEAN_ANOMALY   = 119.1137

EPHEMERIS_TYPE = 0
CLASSIFICATION_TYPE = U
NORAD_CAT_ID   = 66432
ELEMENT_SET_NO = 999
REV_AT_EPOCH   = 305
BSTAR          = .36887E-2
MEAN_MOTION_DOT = .913668E-2
MEAN_MOTION_DDOT = 0

CCSDS_OMM_VERS = 2.0
CREATION_DATE  = 
ORIGINATOR     = 

OBJECT_NAME    = STARLINK-35457
OBJECT_ID      = 2025-259M
CENTER_NAME    = EARTH
REF_FRAME      = TEME
TIME_SYSTEM    = UTC
MEAN_ELEMENT_THEORY = SGP/SGP4

EPOCH          = 2025-11-22T13:43:38.588160
MEAN_MOTION    = 15.80875432
ECCENTRICITY   = .0005367
INCLINATION    = 42.9969
RA_OF_ASC_NODE = 166.7291
ARG_OF_PERICENTER = 312.7901
MEAN_ANOMALY   = 47.2518

EPHEMERIS_TYPE = 0
CLASSIFICATION_TYPE = U
NORAD_CAT_ID   = 66433
ELEMENT_SET_NO = 999
REV_AT_EPOCH   = 302
BSTAR          = -.85203E-2
MEAN_MOTION_DOT = -.1503936E-1
MEAN_MOTION_DDOT = 0

CCSDS_OMM_VERS = 2.0
CREATION_DATE  = 
ORIGINATOR     = 

OBJECT_NAME    = STARLINK-35389
OBJECT_ID      = 2025-259N
CENTER_NAME    = EARTH
REF_FRAME      = TEME
TIME_SYSTEM    = UTC
MEAN_ELEMENT_THEORY = SGP/SGP4

EPOCH          = 2025-11-22T16:45:11.596032
MEAN_MOTION    = 15.80413759
ECCENTRICITY   = .0003559
INCLINATION    = 42.9975
RA_OF_ASC_NODE = 165.9537
ARG_OF_PERICENTER = 240.0099
MEAN_ANOMALY   = 120.0419

EPHEMERIS_TYPE = 0
CLASSIFICATION_TYPE = U
NORAD_CAT_ID   = 66434
ELEMENT_SET_NO = 999
REV_AT_EPOCH   = 304
BSTAR          = -.71313E-2
MEAN_MOTION_DOT = -.1235729E-1
MEAN_MOTION_DDOT = 0

CCSDS_OMM_VERS = 2.0
CREATION_DATE  = 
ORIGINATOR     = 

OBJECT_NAME    = STARLINK-35502
OBJECT_ID      = 2025-259P
CENTER_NAME    = EARTH
REF_FRAME      = TEME
TIME_SYSTEM    = UTC
MEAN_ELEMENT_THEORY = SGP/SGP4

EPOCH          = 2025-11-22T16:44:09.464064
MEAN_MOTION    = 15.83977667
ECCENTRICITY   = .0016588
INCLINATION    = 42.9981
RA_OF_ASC_NODE = 165.9473
ARG_OF_PERICENTER = 232.0469
MEAN_ANOMALY   = 127.8905

EPHEMERIS_TYPE = 0
CLASSIFICATION_TYPE = U
NORAD_CAT_ID   = 66435
ELEMENT_SET_NO = 999
REV_AT_EPOCH   = 304
BSTAR          = .1412E-1
MEAN_MOTION_DOT = .38737E-1
MEAN_MOTION_DDOT = 0

CCSDS_OMM_VERS = 2.0
CREATION_DATE  = 
ORIGINATOR     = 

OBJECT_NAME    = STARLINK-35501
OBJECT_ID      = 2025-259Q
CENTER_NAME    = EARTH
REF_FRAME      = TEME
TIME_SYSTEM    = UTC
MEAN_ELEMENT_THEORY = SGP/SGP4

EPOCH          = 2025-11-22T13:41:34.020096
MEAN_MOTION    = 15.82422888
ECCENTRICITY   = .0010241
INCLINATION    = 42.9966
RA_OF_ASC_NODE = 166.7182
ARG_OF_PERICENTER = 237.1987
MEAN_ANOMALY   = 122.7899

EPHEMERIS_TYPE = 0
CLASSIFICATION_TYPE = U
NORAD_CAT_ID   = 66436
ELEMENT_SET_NO = 999
REV_AT_EPOCH   = 302
BSTAR          = .18899E-2
MEAN_MOTION_DOT = .426765E-2
MEAN_MOTION_DDOT = 0

CCSDS_OMM_VERS = 2.0
CREATION_DATE  = 
ORIGINATOR     = 

OBJECT_NAME    = STARLINK-35474
OBJECT_ID      = 2025-259R
CENTER_NAME    = EARTH
REF_FRAME      = TEME
TIME_SYSTEM    = UTC
MEAN_ELEMENT_THEORY = SGP/SGP4

EPOCH          = 2025-11-22T10:39:01.360800
MEAN_MOTION    = 15.82790751
ECCENTRICITY   = .001023
INCLINATION    = 42.9962
RA_OF_ASC_NODE = 167.4880
ARG_OF_PERICENTER = 243.2325
MEAN_ANOMALY   = 116.7501

EPHEMERIS_TYPE = 0
CLASSIFICATION_TYPE = U
NORAD_CAT_ID   = 66437
ELEMENT_SET_NO = 999
REV_AT_EPOCH   = 300
BSTAR          = .15622E-2
MEAN_MOTION_DOT = .355938E-2
MEAN_MOTION_DDOT = 0

CCSDS_OMM_VERS = 2.0
CREATION_DATE  = 
ORIGINATOR     = 

OBJECT_NAME    = STARLINK-34681
OBJECT_ID      = 2025-259S
CENTER_NAME    = EARTH
REF_FRAME      = TEME
TIME_SYSTEM    = UTC
MEAN_ELEMENT_THEORY = SGP/SGP4

EPOCH          = 2025-11-22T13:40:33.005280
MEAN_MOTION    = 15.82430867
ECCENTRICITY   = .0001899
INCLINATION    = 42.9974
RA_OF_ASC_NODE = 166.7118
ARG_OF_PERICENTER = 269.8362
MEAN_ANOMALY   = 90.2292

EPHEMERIS_TYPE = 0
CLASSIFICATION_TYPE = U
NORAD_CAT_ID   = 66438
ELEMENT_SET_NO = 999
REV_AT_EPOCH   = 291
BSTAR          = .28669E-2
MEAN_MOTION_DOT = .664576E-2
MEAN_MOTION_DDOT = 0

CCSDS_OMM_VERS = 2.0
CREATION_DATE  = 
ORIGINATOR     = 

OBJECT_NAME    = STARLINK-35327
OBJECT_ID      = 2025-259T
CENTER_NAME    = EARTH
REF_FRAME      = TEME
TIME_SYSTEM    = UTC
MEAN_ELEMENT_THEORY = SGP/SGP4

EPOCH          = 2025-11-22T16:43:36.817824
MEAN_MOTION    = 15.82652685
ECCENTRICITY   = .0014103
INCLINATION    = 42.9976
RA_OF_ASC_NODE = 165.9465
ARG_OF_PERICENTER = 214.5545
MEAN_ANOMALY   = 145.4411

EPHEMERIS_TYPE = 0
CLASSIFICATION_TYPE = U
NORAD_CAT_ID   = 66439
ELEMENT_SET_NO = 999
REV_AT_EPOCH   = 304
BSTAR          = .16556E-2
MEAN_MOTION_DOT = .376855E-2
MEAN_MOTION_DDOT = 0

CCSDS_OMM_VERS = 2.0
CREATION_DATE  = 
ORIGINATOR     = 

OBJECT_NAME    = STARLINK-35405
OBJECT_ID      = 2025-259U
CENTER_NAME    = EARTH
REF_FRAME      = TEME
TIME_SYSTEM    = UTC
MEAN_ELEMENT_THEORY = SGP/SGP4

EPOCH          = 2025-11-22T10:37:55.958592
MEAN_MOTION    = 15.82838125
ECCENTRICITY   = .0010735
INCLINATION    = 42.9967
RA_OF_ASC_NODE = 167.4814
ARG_OF_PERICENTER = 243.1376
MEAN_ANOMALY   = 116.8399

EPHEMERIS_TYPE = 0
CLASSIFICATION_TYPE = U
NORAD_CAT_ID   = 66440
ELEMENT_SET_NO = 999
REV_AT_EPOCH   = 300
BSTAR          = .14877E-2
MEAN_MOTION_DOT = .339157E-2
MEAN_MOTION_DDOT = 0

CCSDS_OMM_VERS = 2.0
CREATION_DATE  = 
ORIGINATOR     = 

OBJECT_NAME    = STARLINK-35426
OBJECT_ID      = 2025-259V
CENTER_NAME    = EARTH
REF_FRAME      = TEME
TIME_SYSTEM    = UTC
MEAN_ELEMENT_THEORY = SGP/SGP4

EPOCH          = 2025-11-22T16:40:58.095840
MEAN_MOTION    = 15.82336485
ECCENTRICITY   = .0010318
INCLINATION    = 42.9968
RA_OF_ASC_NODE = 165.9290
ARG_OF_PERICENTER = 228.3295
MEAN_ANOMALY   = 131.6695

EPHEMERIS_TYPE = 0
CLASSIFICATION_TYPE = U
NORAD_CAT_ID   = 66441
ELEMENT_SET_NO = 999
REV_AT_EPOCH   = 304
BSTAR          = .16373E-2
MEAN_MOTION_DOT = .365612E-2
MEAN_MOTION_DDOT = 0

CCSDS_OMM_VERS = 2.0
CREATION_DATE  = 
ORIGINATOR     = 

OBJECT_NAME    = STARLINK-34724
OBJECT_ID      = 2025-259W
CENTER_NAME    = EARTH
REF_FRAME      = TEME
TIME_SYSTEM    = UTC
MEAN_ELEMENT_THEORY = SGP/SGP4

EPOCH          = 2025-11-22T13:38:52.504800
MEAN_MOTION    = 15.80945786
ECCENTRICITY   = .000501
INCLINATION    = 42.9974
RA_OF_ASC_NODE = 166.7028
ARG_OF_PERICENTER = 286.7066
MEAN_ANOMALY   = 73.3255

EPHEMERIS_TYPE = 0
CLASSIFICATION_TYPE = U
NORAD_CAT_ID   = 66442
ELEMENT_SET_NO = 999
REV_AT_EPOCH   = 302
BSTAR          = -.10135E-1
MEAN_MOTION_DOT = -.179127E-1
MEAN_MOTION_DDOT = 0

