STARLINK-35439          
1 66431U 25259K   25326.57279449  .00552748  00000+0  23874-2 0  9994
2 66431  42.9955 166.7361 0011255 248.9037 111.0632 15.82630756  3025
STARLINK-35446          
1 66432U 25259L   25326.76166058  .00913668  00000+0  36887-2 0  9997
2 66432  42.9966 165.5690 0015642 240.8171 119.1137 15.83119950  3055
STARLINK-35457          
1 66433U 25259M   25326.57197440 -.01503936  00000+0 -85203-2 0  9998
2 66433  42.9969 166.7291 0005367 312.7901  47.2518 15.80875432  3024
STARLINK-35389          
1 66434U 25259N   25326.69805088 -.01235729  00000+0 -71313-2 0  9995
2 66434  42.9975 165.9537 0003559 240.0099 120.0419 15.80413759  3040
STARLINK-35502          
1 66435U 25259P   25326.69733176  .03873700  00000+0  14120-1 0  9993
2 66435  42.9981 165.9473 0016588 232.0469 127.8905 15.83977667  3046
STARLINK-35501          
1 66436U 25259Q   25326.57053264  .00426765  00000+0  18899-2 0  9994
2 66436  42.9966 166.7182 0010241 237.1987 122.7899 15.82422888  3020
STARLINK-35474          
1 66437U 25259R   25326.44376575  .00355938  00000+0  15622-2 0  9998
2 66437  42.9962 167.4880 0010230 243.2325 116.7501 15.82790751  3000
STARLINK-34681          
1 66438U 25259S   25326.56982645  .00664576  00000+0  28669-2 0  9999
2 66438  42.9974 166.7118 0001899 269.8362  90.2292 15.82430867  2917
STARLINK-35327          
1 66439U 25259T   25326.69695391  .00376855  00000+0  16556-2 0  9995
2 66439  42.9976 165.9465 0014103 214.5545 145.4411 15.82652685  3043
STARLINK-35405          
1 66440U 25259U   25326.44300878  .00339157  00000+0  14877-2 0  9991
2 66440  42.9967 167.4814 0010735 243.1376 116.8399 15.82838125  3005
STARLINK-35426          
1 66441U 25259V   25326.69511685  .00365612  00000+0  16373-2 0  9997
2 66441  42.9968 165.9290 0010318 228.3295 131.6695 15.82336485  3040
STARLINK-34724          
1 66442U 25259W   25326.56866325 -.01791270  00000+0 -10135-1 0  9993
2 66442  42.9974 166.7028 0005010 286.7066  73.3255 15.80945786  3023
